CARTOSAT-2D             
1 41948U 17008A   26068.83674819  .00000554  00000+0  29492-4 0  9993
2 41948  97.4228 129.9353 0004377 220.7990 139.2917 15.19249562502498
FLOCK 4H-4              
1 66707U 25276AT  26068.76745488  .00008077  00000+0  39509-3 0  9999
2 66707  97.4291 144.0059 0004417   7.9405 352.1898 15.18459011 15326
