[{"OBJECT_NAME":"CARTOSAT-2D","OBJECT_ID":"2017-008A","EPOCH":"2026-03-09T20:04:55.043616","MEAN_MOTION":15.19249562,"ECCENTRICITY":0.00043767,"INCLINATION":97.4228,"RA_OF_ASC_NODE":129.9353,"ARG_OF_PERICENTER":220.799,"MEAN_ANOMALY":139.2917,"EPHEMERIS_TYPE":0,"CLASSIFICATION_TYPE":"U","NORAD_CAT_ID":41948,"ELEMENT_SET_NO":999,"REV_AT_EPOCH":50249,"BSTAR":2.9491802e-5,"MEAN_MOTION_DOT":5.54e-6,"MEAN_MOTION_DDOT":0},{"OBJECT_NAME":"FLOCK 4H-4","OBJECT_ID":"2025-276AT","EPOCH":"2026-03-09T18:25:08.103360","MEAN_MOTION":15.18459011,"ECCENTRICITY":0.00044168,"INCLINATION":97.4291,"RA_OF_ASC_NODE":144.0059,"ARG_OF_PERICENTER":7.9405,"MEAN_ANOMALY":352.1898,"EPHEMERIS_TYPE":0,"CLASSIFICATION_TYPE":"U","NORAD_CAT_ID":66707,"ELEMENT_SET_NO":999,"REV_AT_EPOCH":1532,"BSTAR":0.0003950899,"MEAN_MOTION_DOT":8.077e-5,"MEAN_MOTION_DDOT":0}]
